{
  "type": "FeatureCollection",
  "features": [
    {
      "type": "Feature",
      "properties": {
        "norad_id": 54741,
        "name": "GALAXY 35 (G-35)",
        "group": "intelsat",
        "lat": 0.03162688208435602,
        "lon": 110.67086381115345,
        "alt_km": 35794.65676599833,
        "timestamp": "2025-12-21T07:34:34.208198+00:00",
        "meta_object_name": "GALAXY 35 (G-35)",
        "meta_object_id": "2022-170A",
        "meta_epoch": "2025-12-20T14:29:53.824416",
        "meta_mean_motion": 1.00272181,
        "meta_eccentricity": 0.00021493,
        "meta_inclination": 0.0141,
        "meta_ra_of_asc_node": 52.9808,
        "meta_arg_of_pericenter": 219.5945,
        "meta_mean_anomaly": 301.2412,
        "meta_ephemeris_type": 0,
        "meta_classification_type": "U",
        "meta_norad_cat_id": 54741,
        "meta_element_set_no": 999,
        "meta_rev_at_epoch": 1110,
        "meta_bstar": 0,
        "meta_mean_motion_dot": -1.39e-06,
        "meta_mean_motion_ddot": 0,
        "tle_line1": "1 54741U 22170A   25354.60409519 -.00000139  00000+0  00000+0 0  9998",
        "tle_line2": "2 54741   0.0141  52.9808 0002149 219.5945 301.2412  1.00272181 11100"
      },
      "geometry": {
        "type": "Point",
        "coordinates": [
          110.67086381115345,
          0.03162688208435602
        ]
      }
    },
    {
      "type": "Feature",
      "properties": {
        "norad_id": 54742,
        "name": "GALAXY 36 (G-36)",
        "group": "intelsat",
        "lat": 0.039415547902940946,
        "lon": 114.7665268646891,
        "alt_km": 35787.712141450196,
        "timestamp": "2025-12-21T07:34:34.208208+00:00",
        "meta_object_name": "GALAXY 36 (G-36)",
        "meta_object_id": "2022-170B",
        "meta_epoch": "2025-12-20T19:39:07.624800",
        "meta_mean_motion": 1.00269339,
        "meta_eccentricity": 4.177e-05,
        "meta_inclination": 0.0145,
        "meta_ra_of_asc_node": 21.7505,
        "meta_arg_of_pericenter": 331.3461,
        "meta_mean_anomaly": 302.3284,
        "meta_ephemeris_type": 0,
        "meta_classification_type": "U",
        "meta_norad_cat_id": 54742,
        "meta_element_set_no": 999,
        "meta_rev_at_epoch": 1098,
        "meta_bstar": 0,
        "meta_mean_motion_dot": 0,
        "meta_mean_motion_ddot": 0,
        "tle_line1": "1 54742U 22170B   25354.81883825  .00000000  00000+0  00000+0 0  9994",
        "tle_line2": "2 54742   0.0145  21.7505 0000417 331.3461 302.3284  1.00269339 10980"
      },
      "geometry": {
        "type": "Point",
        "coordinates": [
          114.7665268646891,
          0.039415547902940946
        ]
      }
    },
    {
      "type": "Feature",
      "properties": {
        "norad_id": 57493,
        "name": "GALAXY 37 (G-37)",
        "group": "intelsat",
        "lat": 0.04035042359032997,
        "lon": 76.7705416886335,
        "alt_km": 35794.14425034371,
        "timestamp": "2025-12-21T07:34:34.208219+00:00",
        "meta_object_name": "GALAXY 37 (G-37)",
        "meta_object_id": "2023-112A",
        "meta_epoch": "2025-12-20T16:02:59.906688",
        "meta_mean_motion": 1.00270939,
        "meta_eccentricity": 0.00019261,
        "meta_inclination": 0.0145,
        "meta_ra_of_asc_node": 3.2733,
        "meta_arg_of_pericenter": 268.7416,
        "meta_mean_anomaly": 291.2295,
        "meta_ephemeris_type": 0,
        "meta_classification_type": "U",
        "meta_norad_cat_id": 57493,
        "meta_element_set_no": 999,
        "meta_rev_at_epoch": 875,
        "meta_bstar": 0,
        "meta_mean_motion_dot": 7.2e-07,
        "meta_mean_motion_ddot": 0,
        "tle_line1": "1 57493U 23112A   25354.66874892  .00000072  00000+0  00000+0 0  9993",
        "tle_line2": "2 57493   0.0145   3.2733 0001926 268.7416 291.2295  1.00270939  8751"
      },
      "geometry": {
        "type": "Point",
        "coordinates": [
          76.7705416886335,
          0.04035042359032997
        ]
      }
    }
  ]
}